ONEWEB-0113             
1 48050U 21025J   22161.48239692  .00000291  00000+0  76093-3 0  9991
2 48050  87.9022 251.7896 0001844 100.5542 259.5795 13.13466982 60910
ONEWEB-0112             
1 48051U 21025K   22161.54735915  .00000305  00000+0  79946-3 0  9994
2 48051  87.9074 251.6511 0001929 101.8710 258.2636 13.13468338 60946
ONEWEB-0156             
1 48052U 21025L   22160.71836155  .00000102  00000+0  24405-3 0  9996
2 48052  87.9028 251.9183 0001992 100.3236 259.8118 13.13467409 60806
ONEWEB-0161             
1 48053U 21025M   22161.22473774  .00000079  00000+0  18155-3 0  9996
2 48053  87.9065 251.7558 0002018 107.3664 252.7686 13.13469291 60818
ONEWEB-0158             
1 48054U 21025N   22160.80798970 -.00000243  00000+0 -69957-3 0  9999
2 48054  87.9019 251.9154 0001697  95.9612 264.1710 13.13470982 60879
ONEWEB-0157             
1 48055U 21025P   22160.67805051 -.00000124  00000+0 -37495-3 0  9994
2 48055  87.8994 251.8996 0002325 105.3526 254.7860 13.13469647 60791
ONEWEB-0162             
1 48056U 21025Q   22161.55407744  .00000347  00000+0  91415-3 0  9997
2 48056  87.9074 251.6641 0002099  97.6077 262.5291 13.13468396 60862
ONEWEB-0155             
1 48057U 21025R   22161.19560346 -.00000262  00000+0 -75194-3 0  9990
2 48057  87.8974 251.7657 0001878 106.2790 253.8546 13.13468248 60987
ONEWEB-0149             
1 48058U 21025S   22160.68252699 -.00000026  00000+0 -10502-3 0  9993
2 48058  87.9014 251.9029 0002472  90.7420 269.3993 13.13472021 60710
ONEWEB-0148             
1 48059U 21025T   22161.48463259  .00000179  00000+0  45461-3 0  9998
2 48059  87.9047 251.7153 0002908  96.1954 263.9506 13.13472234 60940
ONEWEB-0160             
1 48060U 21025U   22161.27402245 -.00000266  00000+0 -76192-3 0  9999
2 48060  87.9050 251.7503 0001056  69.4338 290.6904 13.13470604 60866
ONEWEB-0163             
1 48061U 21025V   22161.48685959  .00000057  00000+0  12029-3 0  9993
2 48061  87.9033 251.8135 0002517 109.8298 250.3102 13.13469730 61027
ONEWEB-0159             
1 48062U 21025W   22161.55185070  .00000360  00000+0  95051-3 0  9994
2 48062  87.9084 251.7019 0002533 104.6103 255.5307 13.13469531 60943
ONEWEB-0164             
1 48063U 21025X   22161.22919431  .00000169  00000+0  42785-3 0  9998
2 48063  87.9040 251.8810 0001722 111.7964 248.3349 13.13469619 60896
ONEWEB-0167             
1 48064U 21025Y   22161.48911155 -.00000946  00000+0 -26250-2 0  9995
2 48064  87.8986 251.7377 0002606 105.7245 254.4171 13.13473499 60903
ONEWEB-0166             
1 48065U 21025Z   22161.50925080 -.00000372  00000+0 -10530-2 0  9998
2 48065  87.9066 251.6608 0002167 104.7527 255.3843 13.13466975 60989
ONEWEB-0151             
1 48066U 21025AA  22161.20678779 -.00000307  00000+0 -87512-3 0  9999
2 48066  87.9003 251.8098 0001693 113.0028 247.1279 13.13469520 60899
ONEWEB-0170             
1 48067U 21025AB  22160.68026540 -.00000169  00000+0 -49870-3 0  9995
2 48067  87.9039 251.9802 0001067 120.7206 239.4028 13.13472519 60776
ONEWEB-0168             
1 48068U 21025AC  22161.20005471 -.00000298  00000+0 -84959-3 0  9995
2 48068  87.9018 251.8406 0002095 105.9782 254.1578 13.13473373 60851
ONEWEB-0173             
1 48069U 21025AD  22161.26953658 -.00000238  00000+0 -68533-3 0  9995
2 48069  87.9022 251.8357 0002223 114.8027 245.3334 13.13468456 61103
ONEWEB-0171             
1 48070U 21025AE  22160.69372338  .00000203  00000+0  52176-3 0  9999
2 48070  87.9075 251.8434 0002258 100.9613 259.1770 13.13469800 60845
ONEWEB-0172             
1 48071U 21025AF  22160.67468347 -.00000223  00000+0 -64436-3 0  9990
2 48071  87.8998 251.9900 0001970 112.0982 248.0356 13.13470050 61736
ONEWEB-0174             
1 48072U 21025AG  22161.19110582 -.00000214  00000+0 -62079-3 0  9995
2 48072  87.9078 251.7729 0002873  93.2913 266.8545 13.13467513 61122
ONEWEB-0175             
1 48073U 21025AH  22160.68477358  .00000010  00000+0 -81419-5 0  9990
2 48073  87.9036 251.8443 0001469 112.7123 247.4161 13.13467312 60711
ONEWEB-0177             
1 48074U 21025AJ  22160.69820335  .00000237  00000+0  61285-3 0  9996
2 48074  87.9032 251.9593 0002619 115.3259 244.8141 13.13470531 60909
ONEWEB-0178             
1 48075U 21025AK  22161.17206435  .00000256  00000+0  66575-3 0  9998
2 48075  87.9079 251.7645 0002240 106.8429 253.2946 13.13473711 61014
ONEWEB-0108             
1 48076U 21025AL  22161.51373403 -.00000242  00000+0 -69887-3 0  9993
2 48076  87.9007 251.7513 0001999  89.4804 270.6554 13.13467739 60990
ONEWEB-0169             
1 48077U 21025AM  22161.54511810  .00000373  00000+0  98661-3 0  9998
2 48077  87.9036 251.8061 0002160  95.3065 264.8310 13.13470330 60882
ONEWEB-0176             
1 48210U 21031A   22161.39897108  .00000189  00000+0  47641-3 0  9991
2 48210  87.9054 221.4718 0002247 103.9993 256.1387 13.14501508 56779
ONEWEB-0184             
1 48211U 21031B   22160.61239786  .00000207  00000+0  52506-3 0  9995
2 48211  87.9024 221.5555 0001315 141.1461 218.9763 13.14505806 55358
ONEWEB-0179             
1 48212U 21031C   22160.88515354 -.00000479  00000+0 -13259-2 0  9997
2 48212  87.9033 221.4993 0002395 105.3291 254.8103 13.14502007 55432
ONEWEB-0180             
1 48213U 21031D   22161.07122126  .00000199  00000+0  50141-3 0  9990
2 48213  87.9027 221.4616 0002331 100.1112 260.0281 13.14506723 55348
ONEWEB-0218             
1 48214U 21031E   22161.39685195  .00000202  00000+0  51120-3 0  9999
2 48214  87.9017 221.3633 0002019 139.3369 220.7912 13.14503130 55542
ONEWEB-0209             
1 48215U 21031F   22161.46239715  .00000690  00000+0  18253-2 0  9991
2 48215  87.9042 221.4087 0002386 103.2447 256.8949 13.14503461 55557
ONEWEB-0198             
1 48216U 21031G   22161.14312530  .00000159  00000+0  39564-3 0  9993
2 48216  87.9031 221.4940 0002265 118.5683 241.5675 13.14502657 55600
ONEWEB-0189             
1 48217U 21031H   22160.62299468  .00000210  00000+0  53283-3 0  9992
2 48217  87.9026 221.5353 0002295 117.6991 242.4372 13.14502681 55295
ONEWEB-0196             
1 48218U 21031J   22161.13464699 -.00000062  00000+0 -20188-3 0  9995
2 48218  87.9042 221.4559 0001997 104.0600 256.0752 13.14503985 55354
ONEWEB-0183             
1 48219U 21031K   22161.48777385 -.00000106  00000+0 -32073-3 0  9998
2 48219  87.9048 221.4012 0002262  98.8060 261.3326 13.14501130 55504
ONEWEB-0185             
1 48220U 21031L   22161.44121669  .00002342  00000+0  62779-2 0  9991
2 48220  87.9001 221.3973 0002615  97.4684 262.6743 13.14525806 55423
ONEWEB-0187             
1 48221U 21031M   22161.41586643 -.00000112  00000+0 -33681-3 0  9992
2 48221  87.9045 221.4190 0002343 100.2895 259.8499 13.14500168 55430
ONEWEB-0192             
1 48222U 21031N   22160.85556530  .00000201  00000+0  50763-3 0  9999
2 48222  87.9031 221.4895 0001953 106.7503 253.3841 13.14501111 55272
ONEWEB-0219             
1 48223U 21031P   22161.14101442  .00000117  00000+0  28237-3 0  9998
2 48223  87.9029 221.4228 0002218 101.6371 258.5007 13.14502831 55521
ONEWEB-0202             
1 48224U 21031Q   22161.42433252 -.00000149  00000+0 -43597-3 0  9990
2 48224  87.9045 221.4195 0002322 133.5884 226.5438 13.14499465 55545
ONEWEB-0204             
1 48225U 21031R   22161.40953387 -.00000044  00000+0 -15434-3 0  9998
2 48225  87.9066 221.4357 0002118  78.8206 281.3161 13.14503507 55434
ONEWEB-0205             
1 48226U 21031S   22161.13042573 -.00000081  00000+0 -25257-3 0  9990
2 48226  87.9042 221.4594 0002254 111.1303 249.0067 13.14503166 55417
ONEWEB-0206             
1 48227U 21031T   22161.10295085 -.00000027  00000+0 -10743-3 0  9990
2 48227  87.9016 221.4237 0002408  99.2760 260.8642 13.14504261 55368
ONEWEB-0182             
1 48228U 21031U   22161.09660608  .00000120  00000+0  29031-3 0  9998
2 48228  87.9062 221.5110 0002397 101.6658 258.4741 13.14503907 55574
ONEWEB-0186             
1 48229U 21031V   22160.57646100 -.00000176  00000+0 -50810-3 0  9994
2 48229  87.9032 221.5511 0002265 106.5302 253.6077 13.14504801 55440
ONEWEB-0181             
1 48230U 21031W   22160.62932042  .00000153  00000+0  37901-3 0  9994
2 48230  87.9050 221.5945 0002028 104.4164 255.7191 13.14510119 55307
ONEWEB-0188             
1 48231U 21031X   22160.59337375 -.00000088  00000+0 -27107-3 0  9995
2 48231  87.9046 221.6001 0002276 102.4495 257.6890 13.14504905 55209
ONEWEB-0220             
1 48232U 21031Y   22160.85980496  .00000111  00000+0  26518-3 0  9993
2 48232  87.9029 221.4772 0002476 107.6721 252.4679 13.14500702 55507
ONEWEB-0165             
1 48233U 21031Z   22161.11774365 -.00000102  00000+0 -31013-3 0  9998
2 48233  87.9039 221.4837 0002337 105.9484 254.1904 13.14503674 55493
ONEWEB-0199             
1 48234U 21031AA  22161.40531625  .00000038  00000+0  69244-4 0  9995
2 48234  87.9039 221.4117 0002204 104.2607 255.8767 13.14500772 55432
ONEWEB-0203             
1 48235U 21031AB  22160.86190216  .00000103  00000+0  24204-3 0  9991
2 48235  87.9055 221.4989 0001534 104.3225 255.8075 13.14504310 55377
ONEWEB-0197             
1 48236U 21031AC  22161.45817212  .00000290  00000+0  74857-3 0  9996
2 48236  87.9042 221.4019 0002096 103.0056 257.1308 13.14502819 55365
ONEWEB-0194             
1 48237U 21031AD  22160.58915700 -.00000186  00000+0 -53533-3 0  9995
2 48237  87.9032 221.5688 0001584  95.3466 264.7844 13.14500261 55422
ONEWEB-0193             
1 48238U 21031AE  22161.44337442  .00000067  00000+0  14646-3 0  9991
2 48238  87.9043 221.4039 0001943 106.9967 253.1376 13.14502862 55485
ONEWEB-0191             
1 48239U 21031AF  22161.45393387  .00000185  00000+0  46520-3 0  9990
2 48239  87.9029 221.3954 0001849 101.3263 258.8074 13.14501016 55340
ONEWEB-0195             
1 48240U 21031AG  22161.43277689  .00001716  00000+0  45918-2 0  9996
2 48240  87.9029 221.3879 0002220 115.2758 244.8601 13.14519065 55327
